TEVEL2-8                
1 63239U 25052AF  26068.66815442  .00019130  00000+0  69304-3 0  9993
2 63239  97.4055 324.2923 0008031 124.9191 235.2804 15.28392908 54807
STARLINK-33625          
1 63327U 25057W   26068.22072428  .00024547  00000+0  89849-3 0  9991
2 63327  43.0012  25.8894 0001717 253.4037 106.6627 15.27583440 55792
